[{"OBJECT_NAME":"OBJECT L","OBJECT_ID":"2023-085L","EPOCH":"2026-03-09T23:02:21.999840","MEAN_MOTION":15.29079976,"ECCENTRICITY":0.0005428,"INCLINATION":97.486,"RA_OF_ASC_NODE":178.8598,"ARG_OF_PERICENTER":50.8528,"MEAN_ANOMALY":309.3193,"EPHEMERIS_TYPE":0,"CLASSIFICATION_TYPE":"U","NORAD_CAT_ID":57014,"ELEMENT_SET_NO":999,"REV_AT_EPOCH":15144,"BSTAR":0.00063462603,"MEAN_MOTION_DOT":0.00017871,"MEAN_MOTION_DDOT":0},{"OBJECT_NAME":"STARLINK-33704","OBJECT_ID":"2025-083S","EPOCH":"2026-03-09T04:58:58.430208","MEAN_MOTION":15.27585573,"ECCENTRICITY":0.00018039,"INCLINATION":43.0052,"RA_OF_ASC_NODE":7.887,"ARG_OF_PERICENTER":263.5684,"MEAN_ANOMALY":96.4962,"EPHEMERIS_TYPE":0,"CLASSIFICATION_TYPE":"U","NORAD_CAT_ID":63650,"ELEMENT_SET_NO":999,"REV_AT_EPOCH":4999,"BSTAR":0.00098865857,"MEAN_MOTION_DOT":0.00027048,"MEAN_MOTION_DDOT":0}]
